OBJECT_NAME,OBJECT_ID,EPOCH,MEAN_MOTION,ECCENTRICITY,INCLINATION,RA_OF_ASC_NODE,ARG_OF_PERICENTER,MEAN_ANOMALY,EPHEMERIS_TYPE,CLASSIFICATION_TYPE,NORAD_CAT_ID,ELEMENT_SET_NO,REV_AT_EPOCH,BSTAR,MEAN_MOTION_DOT,MEAN_MOTION_DDOT
COSMOS 2594,2025-182D,2026-07-14T13:08:49.694496,15.96450443,.00056336,96.5882,126.0677,73.9713,286.2186,0,U,65270,999,5207,.14466607E-3,.59741E-3,.3210973E-5
STARLINK-34922,2025-184A,2026-07-16T03:49:11.237376,15.05653066,.00003637,97.2816,247.2041,121.3337,238.7927,0,U,65273,999,5063,.20872571E-4,.245E-5,0
STARLINK-34904,2025-184B,2026-07-16T09:15:11.565792,15.07127677,.00030979,97.2825,247.3600,86.9564,273.2019,0,U,65274,999,5066,.28610104E-1,.453463E-2,0
STARLINK-34954,2025-184C,2026-07-16T14:31:09.988608,15.05659344,.0001831,97.2842,247.5207,101.1950,258.9484,0,U,65275,999,5069,.15142992E-3,.213E-4,0
STARLINK-34968,2025-184D,2026-07-16T02:33:25.959744,15.05657206,.00009976,97.2819,247.1267,110.6226,249.5109,0,U,65276,999,5062,.21873367E-3,.3102E-4,0
STARLINK-34935,2025-184E,2026-07-16T14:47:09.398400,15.05664837,.00011168,97.2841,247.6597,133.2467,226.8854,0,U,65277,999,5070,.28680369E-3,.4086E-4,0
STARLINK-35000,2025-184F,2026-07-16T14:15:13.097376,15.05663332,.00019819,97.2835,247.5372,104.0116,256.1332,0,U,65278,999,5069,.21544019E-3,.3055E-4,0
STARLINK-35023,2025-184G,2026-07-16T02:45:23.141088,15.05660225,.00012299,97.2824,247.1165,127.6704,232.4636,0,U,65279,999,5062,.21115464E-3,.2992E-4,0
STARLINK-35001,2025-184H,2026-07-16T13:31:21.450144,15.05661193,.00007474,97.2818,247.5777,127.8674,232.2621,0,U,65280,999,5069,.16410809E-3,.2313E-4,0
STARLINK-35010,2025-184J,2026-07-16T02:09:30.483360,15.05676048,.00018062,97.2820,247.1471,138.6572,221.4793,0,U,65281,999,5062,.27592434E-3,.393E-4,0
STARLINK-35021,2025-184K,2026-07-16T14:39:09.543168,15.05658206,.00012814,97.2831,247.6659,100.1711,259.9661,0,U,65282,999,5065,.21215807E-3,.3007E-4,0
STARLINK-35015,2025-184L,2026-07-16T14:23:13.059744,15.05667193,.00016846,97.2839,247.5292,99.2546,260.8872,0,U,65283,999,5069,.30436373E-3,.434E-4,0
STARLINK-35006,2025-184M,2026-07-16T02:29:26.149632,15.05663429,.00013059,97.2814,247.1312,129.0753,231.0591,0,U,65284,999,5062,.24940173E-3,.3545E-4,0
STARLINK-34995,2025-184N,2026-07-16T13:59:16.355616,15.05656372,.00014073,97.2831,247.5531,128.4229,231.7125,0,U,65285,999,5069,.8647554E-4,.1192E-4,0
STARLINK-35048,2025-184P,2026-07-16T13:47:18.617856,15.05659831,.00013211,97.2820,247.5631,115.5102,244.6262,0,U,65286,999,5064,.69788719E-4,.951E-5,0
STARLINK-35007,2025-184Q,2026-07-16T14:11:14.750880,15.05653965,.00017094,97.2835,247.5412,109.0208,251.1205,0,U,65287,999,5063,.21663206E-3,.3071E-4,0
STARLINK-35018,2025-184R,2026-07-16T13:27:22.584384,15.05656303,.00009912,97.2821,247.5824,114.2534,245.8798,0,U,65288,999,5069,.55866785E-4,.75E-5,0
STARLINK-34845,2025-184S,2026-07-16T13:15:25.010784,15.05661729,.00007444,97.2827,247.5903,117.4839,242.6464,0,U,65289,999,5069,.29099258E-3,.4146E-4,0
STARLINK-34984,2025-184T,2026-07-16T02:25:28.216992,15.05670727,.00008025,97.2851,247.1386,121.6856,238.4450,0,U,65290,999,5062,.42794805E-3,.6127E-4,0
STARLINK-35002,2025-184U,2026-07-16T14:27:10.591488,15.05662381,.00014161,97.2838,247.5249,126.1081,234.0278,0,U,65291,999,5069,.21025242E-3,.298E-4,0
STARLINK-35017,2025-184V,2026-07-16T14:43:08.689728,15.05658138,.00011823,97.2846,247.6646,122.0467,238.0875,0,U,65292,999,5065,.16713541E-3,.2357E-4,0
STARLINK-34951,2025-184W,2026-07-16T13:51:19.133856,15.05660666,.00017212,97.2823,247.5604,108.4540,251.6875,0,U,65293,999,5069,.19249464E-3,.2723E-4,0
STARLINK-34613,2025-184X,2026-07-16T14:07:14.861280,15.05656901,.00020757,97.2823,247.5437,101.6951,258.4510,0,U,65294,999,5069,.95326595E-4,.132E-4,0
STARLINK-34834,2025-184Y,2026-07-16T14:35:09.153312,15.05658560,.00015787,97.2829,247.5171,107.8830,252.2570,0,U,65295,999,5069,.1313984E-3,.1841E-4,0
STARLINK-34872,2025-184Z,2026-07-16T14:19:13.867392,15.05666545,.00027914,97.2838,247.5334,125.1266,235.0224,0,U,65296,999,5069,.22590143E-3,.3206E-4,0
DRESDEN,2025-185A,2026-07-16T11:50:41.011008,14.79895360,.00091841,97.9641,280.5520,359.2559,0.8638,0,U,65297,999,4816,.51797135E-3,.3859E-4,0
FOURIER,2025-185B,2026-07-16T11:49:27.621120,14.79889310,.00093012,97.9664,280.6170,354.7834,5.3279,0,U,65298,999,4817,.59227563E-3,.442E-4,0
STARK,2025-185C,2026-07-16T11:55:48.156960,14.81980974,.00074394,97.9639,280.9266,359.3246,0.7955,0,U,65299,999,4819,.12128355E-3,.909E-5,0
BASIL,2025-185E,2026-07-16T11:48:14.878368,14.79876663,.00092159,97.9665,280.6251,353.2858,6.8229,0,U,65301,999,4817,.51582062E-3,.3841E-4,0
DOJO,2025-185F,2026-07-16T05:17:16.595808,14.79844543,.00093311,97.9661,280.3540,352.2970,7.8096,0,U,65302,999,4813,.54691521E-3,.4073E-4,0
HULIANWANG DIGUI-73,2025-187A,2026-07-16T14:35:06.154368,13.29323575,.00001086,50.0052,100.3649,319.1060,40.9804,0,U,65305,999,4361,.55761665E-4,-.98E-6,0
HULIANWANG DIGUI-74,2025-187B,2026-07-16T14:11:10.700448,13.29321599,.00001114,50.0094,100.3867,309.3008,50.7855,0,U,65306,999,4361,.42744427E-4,-.104E-5,0
HULIANWANG DIGUI-75,2025-187C,2026-07-16T13:47:08.636064,13.29322757,.00001149,50.0086,100.2803,322.7555,37.3309,0,U,65307,999,4361,.37597753E-4,-.107E-5,0
HULIANWANG DIGUI-76,2025-187D,2026-07-16T13:23:11.127552,13.29323742,.00000821,50.0011,100.6575,7.6379,352.4494,0,U,65308,999,4360,.53114661E-4,-.99E-6,0
HULIANWANG DIGUI-77,2025-187E,2026-07-16T13:11:00.455712,13.29323686,.00001117,50.0045,100.7018,202.7451,157.3416,0,U,65309,999,4360,.55437898E-4,-.98E-6,0
HULIANWANG DIGUI-78,2025-187F,2026-07-16T13:59:17.177280,13.29322751,.00000963,50.0110,100.3858,319.3903,40.6963,0,U,65310,999,4361,.40706571E-4,-.105E-5,0
HULIANWANG DIGUI-79,2025-187G,2026-07-16T13:35:07.066464,13.29319514,.00001584,50.0040,100.7759,318.2506,41.8354,0,U,65311,999,4360,.52927908E-4,-.99E-6,0
HULIANWANG DIGUI-80,2025-187H,2026-07-16T14:47:15.836928,13.29322875,.00001168,50.0031,100.3526,206.5821,153.5046,0,U,65312,999,4361,.68877574E-4,-.92E-6,0
HULIANWANG DIGUI-81,2025-187J,2026-07-16T14:23:19.269312,13.29319708,.00001121,50.0070,100.3694,313.1614,46.9249,0,U,65313,999,4362,.63796909E-4,-.94E-6,0
PELICAN-3,2025-188A,2026-07-16T04:54:31.600224,15.41336624,.00021185,97.1979,272.9253,111.4532,248.6941,0,U,65315,999,4978,.11253823E-3,.4608E-4,0
PELICAN-4,2025-188B,2026-07-16T11:37:19.784928,15.40416965,.00016441,97.1996,273.3509,81.2693,278.8740,0,U,65316,999,4982,.11190508E-3,.4443E-4,0
NAOS,2025-188C,2026-07-16T14:10:36.427296,15.38479578,.00011177,97.2023,272.3923,13.6833,346.4443,0,U,65317,999,4978,.14178292E-3,.5302E-4,0
CAPELLA-16 (ACADIA-6),2025-188D,2026-07-16T15:03:45.046944,14.94060553,.00058229,97.7378,272.3389,130.6417,229.5310,0,U,65318,999,4831,.35270279E-3,.371E-4,0
FFLY03,2025-188E,2026-07-16T14:56:00.322944,14.92829775,.00084273,97.7312,272.2305,17.2094,342.9410,0,U,65319,999,4830,.77735887E-4,.749E-5,0
FFLY01,2025-188F,2026-07-16T16:00:06.775776,14.92714386,.00111635,97.7369,272.4038,79.8666,280.3812,0,U,65320,999,4830,.49707956E-4,.457E-5,0
LEAP-1,2025-188G,2026-07-16T15:22:04.063584,14.91652324,.0004565,97.7355,271.4798,107.1030,253.0689,0,U,65321,999,4824,.11302743E-3,.108E-4,0
FFLY02,2025-188H,2026-07-16T13:54:19.146528,14.92727126,.00132867,97.7359,272.3147,33.6056,326.6004,0,U,65322,999,4829,.45689419E-4,.416E-5,0
STARLINK-34899,2025-189A,2026-07-16T09:15:00.097920,15.31724200,.00006464,53.1577,328.0301,99.9989,260.1085,0,U,65323,999,5082,.31158958E-3,.9323E-4,0
STARLINK-34196,2025-189B,2026-07-16T14:00:01.999872,15.31715296,.00010339,53.1597,327.0296,86.4467,335.4339,0,U,65324,999,572,-.84559097E-3,-.26524E-3,0
STARLINK-34911,2025-189C,2026-07-16T08:30:58.804128,15.34407134,.00007558,53.1620,328.5708,69.4865,290.6219,0,U,65325,999,5081,.56844861E-3,.18882E-3,0
STARLINK-34902,2025-189D,2026-07-16T08:55:13.132992,15.34396679,.00009288,53.1619,328.6716,95.2393,264.8715,0,U,65326,999,5081,.5046159E-3,.16709E-3,0
STARLINK-34880,2025-189E,2026-07-16T09:28:32.561184,15.34396880,.00007022,53.1593,328.8221,65.9650,294.1426,0,U,65327,999,5081,.34694083E-3,.11363E-3,0
STARLINK-34885,2025-189F,2026-07-16T07:54:29.896416,15.31715219,.00009018,53.1586,328.4111,114.8734,245.2361,0,U,65328,999,5075,.66009028E-3,.20183E-3,0
STARLINK-34908,2025-189G,2026-07-16T15:01:18.755328,15.34407233,.00017817,53.1613,327.4122,87.5902,272.5304,0,U,65329,999,5085,.71007862E-3,.23696E-3,0
STARLINK-34864,2025-189H,2026-07-16T08:28:33.565728,15.31717332,.0002765,53.1613,328.5611,95.2586,264.8731,0,U,65330,999,5081,.52817552E-3,.16069E-3,0
STARLINK-34918,2025-189J,2026-07-16T12:16:11.371872,15.31704653,.00013319,53.1591,327.4066,118.4845,241.6290,0,U,65331,999,5078,.34615685E-3,.10393E-3,0
STARLINK-33890,2025-189K,2026-07-16T09:15:28.172736,15.31717590,.00009872,53.1587,328.0432,78.3513,281.7599,0,U,65332,999,4962,.5119727E-4,.1225E-4,0
STARLINK-34602,2025-189L,2026-07-16T07:54:57.015648,15.31712600,.00018197,53.1590,328.4086,96.3331,263.7878,0,U,65333,999,5081,.3799543E-3,.11448E-3,0
STARLINK-34878,2025-189M,2026-07-16T14:51:07.286112,15.31743821,.00014332,53.1622,327.3726,104.0213,256.0948,0,U,65334,999,5085,.70305802E-3,.21544E-3,0
STARLINK-34874,2025-189N,2026-07-16T09:31:34.539456,15.34404790,.00015896,53.1601,328.8186,107.1775,252.9401,0,U,65335,999,5081,.53420224E-3,.17718E-3,0
STARLINK-34835,2025-189P,2026-07-16T09:10:22.051488,15.34400340,.00005945,53.1596,328.7377,67.9922,292.1144,0,U,65336,999,5081,.62237788E-3,.2071E-3,0
STARLINK-34854,2025-189Q,2026-07-16T08:21:50.324832,15.31701963,.00008636,53.1612,328.5281,95.1776,264.9324,0,U,65337,999,5075,.32905755E-3,.986E-4,0
STARLINK-34751,2025-189R,2026-07-16T09:35:37.941216,15.31710661,.0001126,53.1604,328.1357,101.5021,258.6107,0,U,65338,999,5082,.31400973E-3,.9395E-4,0
STARLINK-34777,2025-189S,2026-07-15T19:36:42.428736,15.31715343,.00009783,53.1604,330.8999,90.1595,269.9518,0,U,65339,999,5074,.51425578E-3,.15634E-3,0
